NORAD_CAT_ID,OBJECT_NAME,OBJECT_TYPE,EPOCH,MEAN_MOTION,ECCENTRICITY,INCLINATION,RA_OF_ASC_NODE,ARG_OF_PERICENTER,MEAN_ANOMALY,BSTAR,MEAN_MOTION_DOT,MEAN_MOTION_DDOT,TLE_LINE0,TLE_LINE1,TLE_LINE2,SEMIMAJOR_AXIS,PERIOD,APOGEE,PERIGEE,DECAYED
51787.0,STARLINK-3619,PAYLOAD,2022-03-23 22:00:00,15.6600999,0.0001559,53.2174,13.6614,40.4359,84.5525,-0.007495,-0.00716539,0.0,0 STARLINK-3619,1 51787U 22017V   22082.91667824 -.00716539  00000-0 -74950-2 0  9997,2 51787  53.2174  13.6614 0001559  40.4359  84.5525 15.66009990  5366,6748.473000000001,91.953,371.39,369.286,0.0
51787.0,STARLINK-3619,PAYLOAD,2022-03-24 14:00:01,15.64989799,0.0001419,53.2176,10.3965,45.2113,239.1209,-0.0078029,-0.00715953,0.0,0 STARLINK-3619,1 51787U 22017V   22083.58334491 -.00715953  00000-0 -78029-2 0  9992,2 51787  53.2176  10.3965 0001419  45.2113 239.1209 15.64989799  3689,6751.405,92.013,374.228,372.312,0.0
51787.0,STARLINK-3619,PAYLOAD,2022-03-24 22:00:00,15.64481762,0.0001447,53.2177,8.7666,39.385,323.6988,-0.0080016,-0.00719127,0.0,0 STARLINK-3619,1 51787U 22017V   22083.91667824 -.00719127  00000-0 -80016-2 0  9994,2 51787  53.2177   8.7666 0001447  39.3850 323.6988 15.64481762  3705,6752.8669999999975,92.043,375.709,373.754,0.0
51787.0,STARLINK-3619,PAYLOAD,2022-03-25 00:00:02,15.64351852,0.0001657,53.2174,8.3598,37.1193,75.6226,-0.0079957,-0.00715268,0.0,0 STARLINK-3619,1 51787U 22017V   22084.00002315 -.00715268  00000-0 -79957-2 0  9997,2 51787  53.2174   8.3598 0001657  37.1193  75.6226 15.64351852  5539,6753.24,92.051,376.224,373.986,0.0
51787.0,STARLINK-3619,PAYLOAD,2022-03-25 14:00:01,15.63458159,0.0001531999999999,53.2173,5.5088,41.8881,116.864,-0.0082476,-0.00712287,0.0,0 STARLINK-3619,1 51787U 22017V   22084.58334491 -.00712287  00000-0 -82476-2 0  9991,2 51787  53.2173   5.5088 0001532  41.8881 116.8640 15.63458159  3699,6755.814,92.104,378.714,376.644,0.0
51787.0,STARLINK-3619,PAYLOAD,2022-03-25 22:00:01,15.62949582,0.0001561,53.2176,3.8829,45.8147,189.9158,-0.0084475,-0.00714816,0.0,0 STARLINK-3619,1 51787U 22017V   22084.91668981 -.00714816  00000-0 -84475-2 0  9993,2 51787  53.2176   3.8829 0001561  45.8147 189.9158 15.62949582  3742,6757.279,92.133,380.199,378.089,0.0
51787.0,STARLINK-3619,PAYLOAD,2022-03-26 06:00:00,15.6243857,0.000118,53.2172,2.2588,59.6076,252.3584,-0.0085862,-0.00712236,0.0,0 STARLINK-3619,1 51787U 22017V   22085.25001157 -.00712236  00000-0 -85862-2 0  9992,2 51787  53.2172   2.2588 0001180  59.6076 252.3584 15.62438570  5733,6758.752,92.164,381.415,379.82,0.0
51787.0,STARLINK-3619,PAYLOAD,2022-03-26 14:00:01,15.61928296,0.0001187,53.2173,0.6326,51.0202,336.6362,-0.0087661,-0.00712722,0.0,0 STARLINK-3619,1 51787U 22017V   22085.58334491 -.00712722  00000-0 -87661-2 0  9997,2 51787  53.2173   0.6326 0001187  51.0202 336.6362 15.61928296  3679,6760.224,92.194,382.892,381.287,0.0
51787.0,STARLINK-3619,PAYLOAD,2022-03-26 22:00:00,15.61420038,0.000157,53.2174,359.0106,38.9562,63.7749,-0.008976,-0.00715307,0.0,0 STARLINK-3619,1 51787U 22017V   22085.91667824 -.00715307  00000-0 -89760-2 0  9997,2 51787  53.2174 359.0106 0001570  38.9562  63.7749 15.61420038  3708,6761.691,92.224,384.61800000000005,382.495,0.0
51787.0,STARLINK-3619,PAYLOAD,2022-03-27 06:00:00,15.60908183,0.0001373,53.2172,357.3898,55.6183,121.5757,-0.0091039,-0.00711507,0.0,0 STARLINK-3619,1 51787U 22017V   22086.25001157 -.00711507  00000-0 -91039-2 0  9996,2 51787  53.2172 357.3898 0001373  55.6183 121.5757 15.60908183  5885,6763.169,92.254,385.963,384.106,0.0
51787.0,STARLINK-3619,PAYLOAD,2022-03-27 14:00:01,15.60398471,0.0001486999999999,53.2175,355.7672,46.6264,204.4191,-0.009291,-0.00711934,0.0,0 STARLINK-3619,1 51787U 22017V   22086.58334491 -.00711934  00000-0 -92910-2 0  9995,2 51787  53.2175 355.7672 0001487  46.6264 204.4191 15.60398471  3701,6764.642,92.284,387.513,385.501,0.0
51787.0,STARLINK-3619,PAYLOAD,2022-03-27 22:00:01,15.5989087,0.0001506999999999,53.2176,354.1491,41.2441,283.1023,-0.0095341,-0.00716044,0.0,0 STARLINK-3619,1 51787U 22017V   22086.91668981 -.00716044  00000-0 -95341-2 0  9994,2 51787  53.2176 354.1491 0001507  41.2441 283.1023 15.59890870  3699,6766.11,92.314,388.994,386.955,0.0
51787.0,STARLINK-3619,PAYLOAD,2022-03-28 08:00:01,15.59253076,0.0001396999999999,53.2171,352.1269,52.2856,92.6811,-0.009762,-0.00715468,0.0,0 STARLINK-3619,1 51787U 22017V   22087.33334491 -.00715468  00000-0 -97620-2 0  9998,2 51787  53.2171 352.1269 0001397  52.2856  92.6811 15.59253076  6056,6767.955,92.352,390.765,388.874,0.0
51787.0,STARLINK-3619,PAYLOAD,2022-03-28 14:00:01,15.58868883,0.0001437,53.2172,350.9131,43.2681,65.7163,-0.0098654,-0.00712762,0.0,0 STARLINK-3619,1 51787U 22017V   22087.58335648 -.00712762  00000-0 -98654-2 0  9992,2 51787  53.2172 350.9131 0001437  43.2681  65.7163 15.58868883  3709,6769.066999999999,92.375,391.904,389.959,0.0
51787.0,STARLINK-3619,PAYLOAD,2022-03-28 22:00:00,15.58358064,0.0001675999999999,53.2173,349.2988,41.9916,138.3266,-0.010034,-0.00711174,0.0,0 STARLINK-3619,1 51787U 22017V   22087.91667824 -.00711174  00000-0 -10034-1 0  9994,2 51787  53.2173 349.2988 0001676  41.9916 138.3266 15.58358064  3685,6770.545999999999,92.405,393.545,391.276,0.0
51787.0,STARLINK-3619,PAYLOAD,2022-03-29 14:00:01,15.57338459,0.0001406999999999,53.2173,346.0701,42.7176,278.561,-0.010435,-0.0071152,0.0,0 STARLINK-3619,1 51787U 22017V   22088.58334491 -.00711520  00000-0 -10435-1 0  9999,2 51787  53.2173 346.0701 0001407  42.7176 278.5610 15.57338459  6253,6773.501,92.465,396.319,394.412,0.0
51787.0,STARLINK-3619,PAYLOAD,2022-03-29 22:00:00,15.56831146,0.0001847,53.2175,344.4597,28.5644,2.273,-0.010705,-0.00715836,0.0,0 STARLINK-3619,1 51787U 22017V   22088.91667824 -.00715836  00000-0 -10705-1 0  9999,2 51787  53.2175 344.4597 0001847  28.5644   2.2730 15.56831146  3702,6774.972,92.496,398.088,395.586,0.0
51787.0,STARLINK-3619,PAYLOAD,2022-03-30 12:00:00,15.55936189,0.0001439,53.2176,341.6407,39.7895,21.3064,-0.010997,-0.00711461,0.0,0 STARLINK-3619,1 51787U 22017V   22089.50001157 -.00711461  00000-0 -10997-1 0  9999,2 51787  53.2176 341.6407 0001439  39.7895  21.3064 15.55936189  6393,6777.57,92.549,400.41,398.459,0.0
51787.0,STARLINK-3619,PAYLOAD,2022-03-30 14:00:01,15.55683816,0.0001682,53.2176,341.2395,33.5552,134.6966,-0.0083301,-0.0054525,0.0,0 STARLINK-3619,1 51787U 22017V   22089.58335648 -.00545250  00000-0 -83301-2 0  9993,2 51787  53.2176 341.2395 0001682  33.5552 134.6966 15.55683816  3669,6778.303000000001,92.564,401.3080000000001,399.027,0.0
51787.0,STARLINK-3619,PAYLOAD,2022-03-30 22:00:00,15.55298222,0.0001721999999999,53.2176,339.6316,41.6348,194.2092,-0.011245,-0.00710588,0.0,0 STARLINK-3619,1 51787U 22017V   22089.91667824 -.00710588  00000-0 -11245-1 0  9999,2 51787  53.2176 339.6316 0001722  41.6348 194.2092 15.55298222  3723,6779.4230000000025,92.587,402.455,400.12,0.0
51787.0,STARLINK-3619,PAYLOAD,2022-03-31 14:00:01,15.54278379,0.0001194,53.2173,336.4173,55.37300000000001,314.0785,-0.011688,-0.00711119,0.0,0 STARLINK-3619,1 51787U 22017V   22090.58334491 -.00711119  00000-0 -11688-1 0  9997,2 51787  53.2173 336.4173 0001194  55.3730 314.0785 15.54278379  6562,6782.388000000001,92.647,405.06300000000016,403.443,0.0
51787.0,STARLINK-3619,PAYLOAD,2022-03-31 22:00:00,15.53770771,0.0001801,53.2174,334.8147,31.9378,43.3955,-0.011965,-0.00714351,0.0,0 STARLINK-3619,1 51787U 22017V   22090.91667824 -.00714351  00000-0 -11965-1 0  9992,2 51787  53.2174 334.8147 0001801  31.9378  43.3955 15.53770771  3682,6783.865,92.678,406.952,404.508,0.0
51787.0,STARLINK-3619,PAYLOAD,2022-04-01 14:00:01,15.52750705,0.0001519,53.2172,331.6074,51.0362,154.2279,-0.012418,-0.00714239,0.0,0 STARLINK-3619,1 51787U 22017V   22091.58334491 -.00714239  00000-0 -12418-1 0  9996,2 51787  53.2172 331.6074 0001519  51.0362 154.2279 15.52750705  6718,6786.8359999999975,92.739,409.732,407.67,0.0
51787.0,STARLINK-3619,PAYLOAD,2022-04-01 22:00:00,15.52239175,0.0001719,53.2173,330.0086,40.9573,228.352,-0.012599,-0.00711596,0.0,0 STARLINK-3619,1 51787U 22017V   22091.91667824 -.00711596  00000-0 -12599-1 0  9995,2 51787  53.2173 330.0086 0001719  40.9573 228.3520 15.52239175  3675,6788.3269999999975,92.769,411.359,409.025,0.0
51787.0,STARLINK-3619,PAYLOAD,2022-04-02 14:00:01,15.51218973,0.0001468,53.2174,326.8087,40.2649,355.3631,-0.013063,-0.00720201,0.0,0 STARLINK-3619,1 51787U 22017V   22092.58335648 -.00720201  00000-0 -13063-1 0  9995,2 51787  53.2174 326.8087 0001468  40.2649 355.3631 15.51218973  6879,6791.303000000001,92.83,414.165,412.171,0.0
51787.0,STARLINK-3619,PAYLOAD,2022-04-02 22:00:01,15.50711986,0.0001834,53.2174,325.2139,33.8387,63.9941,-0.013406,-0.00725448,0.0,0 STARLINK-3619,1 51787U 22017V   22092.91668981 -.00725448  00000-0 -13406-1 0  9990,2 51787  53.2174 325.2139 0001834  33.8387  63.9941 15.50711986  3700,6792.783,92.861,415.894,413.402,0.0
51787.0,STARLINK-3619,PAYLOAD,2022-04-03 04:00:00,15.50233119,0.0001377,53.2172,324.0174,45.4987,8.5405,-0.0085246,-0.00462456,0.0,0 STARLINK-3619,1 51787U 22017V   22093.16667824 -.00462456  00000-0 -85246-2 0  9992,2 51787  53.2172 324.0174 0001377  45.4987   8.5405 15.50233119  6969,6794.182,92.889,416.982,415.111,0.0
51787.0,STARLINK-3619,PAYLOAD,2022-04-03 14:00:01,15.498871,0.0001647,53.2174,322.0231,44.8202,175.5732,-4.9106e-05,-3.238e-05,0.0,0 STARLINK-3619,1 51787U 22017V   22093.58334491 -.00003238  00000-0 -49106-4 0  9995,2 51787  53.2174 322.0231 0001647  44.8202 175.5732 15.49887100  7025,6795.193,92.91,418.177,415.939,0.0
51787.0,STARLINK-3619,PAYLOAD,2022-04-03 22:00:00,15.49908037,0.0002032,53.2171,320.4398,54.256,227.1275,0.00019189,0.00010462,0.0,0 STARLINK-3619,1 51787U 22017V   22093.91667824  .00010462  00000-0  19189-3 0  9993,2 51787  53.2171 320.4398 0002032  54.2560 227.1275 15.49908037  7084,6795.132,92.909,418.378,415.616,0.0
